TIROS N [P]             
1 11060U 78096A   09161.49237892 -.00000015  00000-0  14933-4 0  2072
2 11060  98.9293 131.9677 0011470  38.1811 322.0173 14.17477474798007
NOAA 1 [-]              
1 04793U 70106A   09161.86626446 -.00000031  00000-0  10000-3 0  1896
2 04793 102.0759 152.4688 0032270  89.3224 271.1548 12.53929075762124
NOAA 2 [-]              
1 06235U 72082A   09160.96956366 -.00000027  00000-0  10000-3 0  3023
2 06235 101.4010 179.1737 0003484 303.1379  56.9359 12.53002956676565
NOAA 3 [-]              
1 06920U 73086A   09162.12652367 -.00000030  00000-0  10000-3 0  1799
2 06920 101.7266 184.6511 0006379 179.3884 180.7189 12.40297483611522
NOAA 4 [-]              
1 07529U 74089A   09161.62206070 -.00000027  00000-0  10000-3 0  1919
2 07529 101.4420 186.5953 0009429 332.5376  27.5195 12.53052242581220
NOAA 5 [-]              
1 09057U 76077A   09162.15266235 -.00000031  00000-0  10000-3 0   659
2 09057 101.9192 204.5738 0010042   1.5526 358.5557 12.37840064485731
NOAA 6 [P]              
1 11416U 79057A   09161.68962038  .00000038  00000-0  29897-4 0  8696
2 11416  98.4073 176.8047 0009463 284.3218  75.6911 14.31921268560781
NOAA 7 [-]              
1 12553U 81059A   09160.94536868 -.00000023  00000-0  99155-5 0  9994
2 12553  98.6532 114.8302 0011572 342.9123  17.1661 14.16764613444508
NOAA 8 [-]              
1 13923U 83022A   09162.11522399  .00000010  00000-0  21605-4 0  8812
2 13923  98.5590 192.1079 0016361 124.5133 235.7602 14.27704943363986
NOAA 9 [P]              
1 15427U 84123A   09161.43150137 -.00000227  00000-0 -95703-4 0  7032
2 15427  98.4387 159.4997 0015969  80.1794 280.1195 14.15320559264006
NOAA 10 [-]             
1 16969U 86073A   09161.14736223 -.00000003  00000-0  17037-4 0  6432
2 16969  98.6901 187.8332 0011702 214.6481 145.3943 14.27388069182508
NOAA 11 [-]             
1 19531U 88089A   09162.33794120 -.00000212  00000-0 -87293-4 0  6570
2 19531  98.7849 252.3809 0012254 122.9418 237.2933 14.14895912 68698
NOAA 12 [B]             
1 21263U 91032A   09161.50982132  .00000014  00000-0  24992-4 0  1454
2 21263  98.7708 169.5671 0012439 160.7691 199.3960 14.25581643939444
NOAA 13 [-]             
1 22739U 93050A   09161.82203371  .00000012  00000-0  30547-4 0  7368
2 22739  98.8703 242.0072 0008905 216.6881 143.3681 14.12220016816067
NOAA 14 [-]             
1 23455U 94089A   09161.37651417 -.00000256  00000-0 -11191-3 0  6471
2 23455  98.9096 239.0806 0009133 204.6894 155.3841 14.13762349744966
NOAA 15 [+]             
1 25338U 98030A   09161.24097296 -.00000066  00000-0 -99922-5 0  9582
2 25338  98.5830 150.6002 0011792  79.2084 281.0423 14.24764391575783
NOAA 16 [+]             
1 26536U 00055A   09161.27974502  .00000215  00000-0  14141-3 0  4352
2 26536  99.1751 164.7787 0009714 303.8549  56.1748 14.12521708449323
NOAA 17 [+]             
1 27453U 02032A   09161.32574711  .00000217  00000-0  11242-3 0  4432
2 27453  98.4845 220.6320 0012485 140.2555 219.9553 14.24069570361774
NOAA 18 [+]             
1 28654U 05018A   09161.31181876  .00000027  00000-0  39560-4 0  9324
2 28654  98.9080 104.6049 0014812  26.2368 333.9550 14.11263266208985
NOAA 19 [S]             
1 33591U 09005A   09161.36123964 -.00000214  00000-0 -95423-4 0  1354
2 33591  98.7461 107.3005 0013047 263.3168  96.6522 14.10961501 17475
